NORAD_CAT_ID,OBJECT_NAME,OBJECT_TYPE,EPOCH,MEAN_MOTION,ECCENTRICITY,INCLINATION,RA_OF_ASC_NODE,ARG_OF_PERICENTER,MEAN_ANOMALY,BSTAR,MEAN_MOTION_DOT,MEAN_MOTION_DDOT,TLE_LINE0,TLE_LINE1,TLE_LINE2,SEMIMAJOR_AXIS,PERIOD,APOGEE,PERIGEE,DECAYED
51875.0,STARLINK-3585,PAYLOAD,2022-03-07 20:00:01,15.82056325,0.0001161,53.2173,123.3619,69.1541,108.8995,-0.0046744,-0.00881747,0.0,0 STARLINK-3585,1 51875U 22022Z   22066.83334491 -.00881747  00000-0 -46744-2 0  9999,2 51875  53.2173 123.3619 0001161  69.1541 108.8995 15.82056325  1883,6702.763000000001,91.021,325.406,323.85,0.0
51875.0,STARLINK-3585,PAYLOAD,2022-03-08 14:00:01,15.80633194,0.000116,53.2173,119.607,60.3887,69.7616,-0.0049172,-0.0086912999999999,0.0,0 STARLINK-3585,1 51875U 22022Z   22067.58334491 -.00869130  00000-0 -49172-2 0  9992,2 51875  53.2173 119.6070 0001160  60.3887  69.7616 15.80633194  1469,6706.786,91.103,329.4290000000001,327.8730000000001,0.0
51875.0,STARLINK-3585,PAYLOAD,2022-03-08 20:00:01,15.80167237,0.0001224,53.2175,118.355,52.5808,60.7493,-0.005086,-0.00878784,0.0,0 STARLINK-3585,1 51875U 22022Z   22067.83334491 -.00878784  00000-0 -50860-2 0  9991,2 51875  53.2175 118.3550 0001224  52.5808  60.7493 15.80167237  2035,6708.104,91.13,330.79,329.148,0.0
51875.0,STARLINK-3585,PAYLOAD,2022-03-08 22:00:00,15.80008429,0.0001198,53.2176,117.9379,61.7031,165.92700000000005,-0.0051067,-0.00876177,0.0,0 STARLINK-3585,1 51875U 22022Z   22067.91667824 -.00876177  00000-0 -51067-2 0  9993,2 51875  53.2176 117.9379 0001198  61.7031 165.9270 15.80008429  1510,6708.554,91.139,331.222,329.615,0.0
51875.0,STARLINK-3585,PAYLOAD,2022-03-09 14:00:01,15.78747041,0.000111,53.2173,114.6105,56.5943,3.7271,-0.0053757,-0.00871011,0.0,0 STARLINK-3585,1 51875U 22022Z   22068.58334491 -.00871011  00000-0 -53757-2 0  9998,2 51875  53.2173 114.6105 0001110  56.5943   3.7271 15.78747041  1625,6712.127,91.212,334.737,333.247,0.0
51875.0,STARLINK-3585,PAYLOAD,2022-03-09 22:00:01,15.78118784,0.000131,53.2173,112.946,48.2254,107.3741,-0.0055412,-0.00872485,0.0,0 STARLINK-3585,1 51875U 22022Z   22068.91668981 -.00872485  00000-0 -55412-2 0  9995,2 51875  53.2173 112.9460 0001310  48.2254 107.3741 15.78118784  2209,6713.908,91.248,336.652,334.89300000000014,0.0
51875.0,STARLINK-3585,PAYLOAD,2022-03-10 14:00:01,15.768607199999998,0.0001046,53.2173,109.6281,62.2043,281.4822,-0.0058654,-0.00872589,0.0,0 STARLINK-3585,1 51875U 22022Z   22069.58334491 -.00872589  00000-0 -58654-2 0  9991,2 51875  53.2173 109.6281 0001046  62.2043 281.4822 15.76860720  1789,6717.478,91.321,340.046,338.641,0.0
51875.0,STARLINK-3585,PAYLOAD,2022-03-10 20:00:01,15.76391609,0.0001113,53.2176,108.3828,57.9605,265.5043,-0.0060285,-0.00877745,0.0,0 STARLINK-3585,1 51875U 22022Z   22069.83334491 -.00877745  00000-0 -60285-2 0  9991,2 51875  53.2176 108.3828 0001113  57.9605 265.5043 15.76391609  2352,6718.811,91.348,341.4240000000001,339.92800000000005,0.0
51875.0,STARLINK-3585,PAYLOAD,2022-03-10 22:00:01,15.76230813,0.0001169,53.2175,107.9681,49.2822,27.4146,-0.006027,-0.00871906,0.0,0 STARLINK-3585,1 51875U 22022Z   22069.91668981 -.00871906  00000-0 -60270-2 0  9991,2 51875  53.2175 107.9681 0001169  49.2822  27.4146 15.76230813  1839,6719.268,91.357,341.9190000000001,340.348,0.0
51875.0,STARLINK-3585,PAYLOAD,2022-03-11 12:00:00,15.75128415,0.0001291999999999,53.2176,105.0729,57.1328,90.3279,-0.0063106,-0.00869757,0.0,0 STARLINK-3585,1 51875U 22022Z   22070.50001157 -.00869757  00000-0 -63106-2 0  9996,2 51875  53.2176 105.0729 0001292  57.1328  90.3279 15.75128415  1927,6722.403,91.421,345.136,343.399,0.0
51875.0,STARLINK-3585,PAYLOAD,2022-03-11 20:00:01,15.74503798,0.0001344,53.2175,103.4176,51.0348,187.2885,-0.0065465,-0.00877112,0.0,0 STARLINK-3585,1 51875U 22022Z   22070.83334491 -.00877112  00000-0 -65465-2 0  9996,2 51875  53.2175 103.4176 0001344  51.0348 187.2885 15.74503798  2512,6724.181,91.457,346.949,345.142,0.0
51875.0,STARLINK-3585,PAYLOAD,2022-03-11 22:00:00,15.74343498,0.0001184,53.2173,103.0041,46.2713,304.6511,-0.0065572,-0.00872814,0.0,0 STARLINK-3585,1 51875U 22022Z   22070.91667824 -.00872814  00000-0 -65572-2 0  9997,2 51875  53.2173 103.0041 0001184  46.2713 304.6511 15.74343498  1992,6724.637,91.467,347.298,345.706,0.0
51875.0,STARLINK-3585,PAYLOAD,2022-03-12 14:00:01,15.73204434,0.0001177,53.2172,99.7045,63.804,106.2142,2.7257e-06,-2.37e-06,0.0,0 STARLINK-3585,1 51875U 22022Z   22071.58334491 -.00000237  00000-0  27257-5 0  9994,2 51875  53.2172  99.7045 0001177  63.8040 106.2142 15.73204434  2639,6727.8830000000025,91.533,350.539,348.956,0.0
51875.0,STARLINK-3585,PAYLOAD,2022-03-12 22:00:00,15.73188559,0.00014,53.2191,98.0579,57.7292,201.21400000000003,0.00079702,0.00112692,0.0,0 STARLINK-3585,1 51875U 22022Z   22071.91667824  .00112692  00000-0  79702-3 0  9998,2 51875  53.2191  98.0579 0001400  57.7292 201.2140 15.73188559  2154,6727.928000000001,91.534,350.735,348.851,0.0
51875.0,STARLINK-3585,PAYLOAD,2022-03-13 06:00:00,15.73312759,0.0001483,53.2194,96.4122,53.2026,294.7034,-0.00025137,-0.00035919,0.0,0 STARLINK-3585,1 51875U 22022Z   22072.25001157 -.00035919  00000-0 -25137-3 0  9998,2 51875  53.2194  96.4122 0001483  53.2026 294.7034 15.73312759  2734,6727.574000000001,91.527,350.436,348.441,0.0
51875.0,STARLINK-3585,PAYLOAD,2022-03-13 14:00:01,15.73259844,0.0001558,53.2187,94.7634,46.985,29.9249,-0.000334,-0.00047353,0.0,0 STARLINK-3585,1 51875U 22022Z   22072.58334491 -.00047353  00000-0 -33400-3 0  9991,2 51875  53.2187  94.7634 0001558  46.9850  29.9249 15.73259844  2788,6727.725,91.53,350.63800000000015,348.541,0.0
51875.0,STARLINK-3585,PAYLOAD,2022-03-13 22:00:01,15.73195573,0.0001334,53.2186,93.1119,57.9278,108.028,7.0566e-06,3.700000000000001e-06,0.0,0 STARLINK-3585,1 51875U 22022Z   22072.91668981  .00000370  00000-0  70566-5 0  9994,2 51875  53.2186  93.1119 0001334  57.9278 108.0280 15.73195573  2306,6727.908,91.533,350.67,348.875,0.0
51875.0,STARLINK-3585,PAYLOAD,2022-03-14 04:00:00,15.73216098,0.0001341,53.2191,91.8756,56.4847,86.1194,-1.3728e-05,-2.547e-05,0.0,0 STARLINK-3585,1 51875U 22022Z   22073.16667824 -.00002547  00000-0 -13728-4 0  9993,2 51875  53.2191  91.8756 0001341  56.4847  86.1194 15.73216098  2876,6727.849,91.532,350.616,348.81199999999984,0.0
51875.0,STARLINK-3585,PAYLOAD,2022-03-14 12:00:00,15.73223111,0.0001416,53.219,90.2278,46.1521,185.4393,0.00098973,0.00140772,0.0,0 STARLINK-3585,1 51875U 22022Z   22073.50001157  .00140772  00000-0  98973-3 0  9997,2 51875  53.2190  90.2278 0001416  46.1521 185.4393 15.73223111  2930,6727.829000000002,91.532,350.647,348.742,0.0
51875.0,STARLINK-3585,PAYLOAD,2022-03-14 14:00:01,15.73262949,0.0001411,53.2189,89.815,46.0093,297.8866,0.0006783,0.00095927,0.0,0 STARLINK-3585,1 51875U 22022Z   22073.58335648  .00095927  00000-0  67830-3 0  9999,2 51875  53.2189  89.8150 0001411  46.0093 297.8866 15.73262949  2417,6727.715999999999,91.53,350.53,348.631,0.0
51875.0,STARLINK-3585,PAYLOAD,2022-03-14 20:00:01,15.73304785,0.0001256,53.2192,88.5762,52.0727,268.5122,-6.0059e-05,-9.078e-05,0.0,0 STARLINK-3585,1 51875U 22022Z   22073.83334491 -.00009078  00000-0 -60059-4 0  9993,2 51875  53.2192  88.5762 0001256  52.0727 268.5122 15.73304785  2981,6727.596,91.527,350.306,348.616,0.0
51875.0,STARLINK-3585,PAYLOAD,2022-03-15 02:00:01,15.73344992,0.0001317,53.2193,87.3388,56.4682,240.8983,-0.0011985,-0.00166564,0.0,0 STARLINK-3585,1 51875U 22022Z   22074.08334491 -.00166564  00000-0 -11985-2 0  9997,2 51875  53.2193  87.3388 0001317  56.4682 240.8983 15.73344992  3027,6727.482,91.525,350.233,348.461,0.0
51875.0,STARLINK-3585,PAYLOAD,2022-03-15 22:00:00,15.7299161,0.0001371,53.2184,83.2149,60.6767,278.9296,0.0015237,0.0021689,0.0,0 STARLINK-3585,1 51875U 22022Z   22074.91667824  .00216890  00000-0  15237-2 0  9998,2 51875  53.2184  83.2149 0001371  60.6767 278.9296 15.72991610  2626,6728.489000000001,91.545,351.277,349.432,0.0
51875.0,STARLINK-3585,PAYLOAD,2022-03-16 04:00:00,15.73113903,0.0001296999999999,53.2187,81.9792,55.3584,260.8049,0.0010417999999999,0.0014764,0.0,0 STARLINK-3585,1 51875U 22022Z   22075.16667824  .00147640  00000-0  10418-2 0  9998,2 51875  53.2187  81.9792 0001297  55.3584 260.8049 15.73113903  3194,6728.141,91.538,350.87800000000016,349.1330000000001,0.0
51875.0,STARLINK-3585,PAYLOAD,2022-03-16 14:00:01,15.73291698,0.0001327,53.2186,79.9182,46.1111,111.1619,-0.00046231,-0.00065255,0.0,0 STARLINK-3585,1 51875U 22022Z   22075.58334491 -.00065255  00000-0 -46231-3 0  9991,2 51875  53.2186  79.9182 0001327  46.1111 111.1619 15.73291698  2739,6727.634,91.528,350.392,348.606,0.0
51875.0,STARLINK-3585,PAYLOAD,2022-03-16 20:00:01,15.73201504,0.0001221,53.2189,78.6793,54.3483,79.6856,0.00041048,0.00057386,0.0,0 STARLINK-3585,1 51875U 22022Z   22075.83334491  .00057386  00000-0  41048-3 0  9994,2 51875  53.2189  78.6793 0001221  54.3483  79.6856 15.73201504  3292,6727.891,91.533,350.577,348.934,0.0
51875.0,STARLINK-3585,PAYLOAD,2022-03-17 06:00:00,15.73213617,0.0001423,53.2188,76.6188,51.1987,284.0274,-0.00033879,-0.00047925,0.0,0 STARLINK-3585,1 51875U 22022Z   22076.25001157 -.00047925  00000-0 -33879-3 0  9994,2 51875  53.2188  76.6188 0001423  51.1987 284.0274 15.73213617  3367,6727.856,91.532,350.67900000000014,348.764,0.0
51875.0,STARLINK-3585,PAYLOAD,2022-03-17 14:00:01,15.73185097,0.0001471,53.2182,74.9691,51.9416,12.2184,-5.4815e-05,-8.3e-05,0.0,0 STARLINK-3585,1 51875U 22022Z   22076.58334491 -.00008300  00000-0 -54815-4 0  9998,2 51875  53.2182  74.9691 0001471  51.9416  12.2184 15.73185097  2897,6727.938,91.534,350.792,348.81300000000016,0.0
51875.0,STARLINK-3585,PAYLOAD,2022-03-17 22:00:00,15.73168409,0.0001361,53.2184,73.3181,64.9908,88.07799999999996,0.00061797,0.00086891,0.0,0 STARLINK-3585,1 51875U 22022Z   22076.91667824  .00086891  00000-0  61797-3 0  9999,2 51875  53.2184  73.3181 0001361  64.9908  88.0780 15.73168409  2941,6727.985,91.535,350.766,348.935,0.0
